CCSDS_OMM_VERS = 2.0
CREATION_DATE  = 
ORIGINATOR     = 

OBJECT_NAME    = TRANSPORTER-15 CW
OBJECT_ID      = 2025-276CW
CENTER_NAME    = EARTH
REF_FRAME      = TEME
TIME_SYSTEM    = UTC
MEAN_ELEMENT_THEORY = SGP/SGP4

EPOCH          = 2025-12-19T15:41:54.241728
MEAN_MOTION    = 15.18031041
ECCENTRICITY   = .00010989
INCLINATION    = 97.4405
RA_OF_ASC_NODE = 65.3141
ARG_OF_PERICENTER = 141.1431
MEAN_ANOMALY   = 218.9882

EPHEMERIS_TYPE = 0
CLASSIFICATION_TYPE = U
NORAD_CAT_ID   = 66758
ELEMENT_SET_NO = 999
REV_AT_EPOCH   = 317
BSTAR          = .19854684E-3
MEAN_MOTION_DOT = .3973E-4
MEAN_MOTION_DDOT = 0

CCSDS_OMM_VERS = 2.0
CREATION_DATE  = 
ORIGINATOR     = 

OBJECT_NAME    = TRANSPORTER-15 CX
OBJECT_ID      = 2025-276CX
CENTER_NAME    = EARTH
REF_FRAME      = TEME
TIME_SYSTEM    = UTC
MEAN_ELEMENT_THEORY = SGP/SGP4

EPOCH          = 2025-12-19T14:05:02.213952
MEAN_MOTION    = 15.18161392
ECCENTRICITY   = .0001493
INCLINATION    = 97.4394
RA_OF_ASC_NODE = 65.2472
ARG_OF_PERICENTER = 144.8645
MEAN_ANOMALY   = 215.2688

EPHEMERIS_TYPE = 0
CLASSIFICATION_TYPE = U
NORAD_CAT_ID   = 66759
ELEMENT_SET_NO = 999
REV_AT_EPOCH   = 316
BSTAR          = .2502E-3
MEAN_MOTION_DOT = .5044E-4
MEAN_MOTION_DDOT = 0

CCSDS_OMM_VERS = 2.0
CREATION_DATE  = 
ORIGINATOR     = 

OBJECT_NAME    = TRANSPORTER-15 CY
OBJECT_ID      = 2025-276CY
CENTER_NAME    = EARTH
REF_FRAME      = TEME
TIME_SYSTEM    = UTC
MEAN_ELEMENT_THEORY = SGP/SGP4

EPOCH          = 2025-12-19T14:04:26.423616
MEAN_MOTION    = 15.18148668
ECCENTRICITY   = .0001482
INCLINATION    = 97.4410
RA_OF_ASC_NODE = 65.2530
ARG_OF_PERICENTER = 114.6882
MEAN_ANOMALY   = 245.4506

EPHEMERIS_TYPE = 0
CLASSIFICATION_TYPE = U
NORAD_CAT_ID   = 66760
ELEMENT_SET_NO = 999
REV_AT_EPOCH   = 316
BSTAR          = .19066E-3
MEAN_MOTION_DOT = .3826E-4
MEAN_MOTION_DDOT = 0

CCSDS_OMM_VERS = 2.0
CREATION_DATE  = 
ORIGINATOR     = 

OBJECT_NAME    = TRANSPORTER-15 CZ
OBJECT_ID      = 2025-276CZ
CENTER_NAME    = EARTH
REF_FRAME      = TEME
TIME_SYSTEM    = UTC
MEAN_ELEMENT_THEORY = SGP/SGP4

EPOCH          = 2025-12-19T15:36:32.669568
MEAN_MOTION    = 15.18406785
ECCENTRICITY   = .0001457
INCLINATION    = 97.4410
RA_OF_ASC_NODE = 65.3201
ARG_OF_PERICENTER = 126.8790
MEAN_ANOMALY   = 233.2578

EPHEMERIS_TYPE = 0
CLASSIFICATION_TYPE = U
NORAD_CAT_ID   = 66761
ELEMENT_SET_NO = 999
REV_AT_EPOCH   = 317
BSTAR          = .32412E-3
MEAN_MOTION_DOT = .6602E-4
MEAN_MOTION_DDOT = 0

CCSDS_OMM_VERS = 2.0
CREATION_DATE  = 
ORIGINATOR     = 

OBJECT_NAME    = TRANSPORTER-15 DA
OBJECT_ID      = 2025-276DA
CENTER_NAME    = EARTH
REF_FRAME      = TEME
TIME_SYSTEM    = UTC
MEAN_ELEMENT_THEORY = SGP/SGP4

EPOCH          = 2025-12-19T15:55:45.820128
MEAN_MOTION    = 15.17272442
ECCENTRICITY   = .00010205
INCLINATION    = 97.4418
RA_OF_ASC_NODE = 65.3051
ARG_OF_PERICENTER = 289.3791
MEAN_ANOMALY   = 70.7333

EPHEMERIS_TYPE = 0
CLASSIFICATION_TYPE = U
NORAD_CAT_ID   = 66762
ELEMENT_SET_NO = 999
REV_AT_EPOCH   = 317
BSTAR          = .1379411E-3
MEAN_MOTION_DOT = .268E-4
MEAN_MOTION_DDOT = 0

CCSDS_OMM_VERS = 2.0
CREATION_DATE  = 
ORIGINATOR     = 

OBJECT_NAME    = TRANSPORTER-15 DB
OBJECT_ID      = 2025-276DB
CENTER_NAME    = EARTH
REF_FRAME      = TEME
TIME_SYSTEM    = UTC
MEAN_ELEMENT_THEORY = SGP/SGP4

EPOCH          = 2025-12-19T15:53:14.511264
MEAN_MOTION    = 15.17399525
ECCENTRICITY   = .00013944
INCLINATION    = 97.4424
RA_OF_ASC_NODE = 65.3111
ARG_OF_PERICENTER = 262.5226
MEAN_ANOMALY   = 97.5849

EPHEMERIS_TYPE = 0
CLASSIFICATION_TYPE = U
NORAD_CAT_ID   = 66763
ELEMENT_SET_NO = 999
REV_AT_EPOCH   = 317
BSTAR          = .13384259E-3
MEAN_MOTION_DOT = .2608E-4
MEAN_MOTION_DDOT = 0

CCSDS_OMM_VERS = 2.0
CREATION_DATE  = 
ORIGINATOR     = 

OBJECT_NAME    = TRANSPORTER-15 DC
OBJECT_ID      = 2025-276DC
CENTER_NAME    = EARTH
REF_FRAME      = TEME
TIME_SYSTEM    = UTC
MEAN_ELEMENT_THEORY = SGP/SGP4

EPOCH          = 2025-12-19T15:47:44.007072
MEAN_MOTION    = 15.17665105
ECCENTRICITY   = .00017825
INCLINATION    = 97.4416
RA_OF_ASC_NODE = 65.3107
ARG_OF_PERICENTER = 211.1809
MEAN_ANOMALY   = 148.9319

EPHEMERIS_TYPE = 0
CLASSIFICATION_TYPE = U
NORAD_CAT_ID   = 66764
ELEMENT_SET_NO = 999
REV_AT_EPOCH   = 317
BSTAR          = .11454503E-3
MEAN_MOTION_DOT = .224E-4
MEAN_MOTION_DDOT = 0

CCSDS_OMM_VERS = 2.0
CREATION_DATE  = 
ORIGINATOR     = 

OBJECT_NAME    = TRANSPORTER-15 DD
OBJECT_ID      = 2025-276DD
CENTER_NAME    = EARTH
REF_FRAME      = TEME
TIME_SYSTEM    = UTC
MEAN_ELEMENT_THEORY = SGP/SGP4

EPOCH          = 2025-12-19T10:47:50.531424
MEAN_MOTION    = 15.18650413
ECCENTRICITY   = .0001765
INCLINATION    = 97.4434
RA_OF_ASC_NODE = 65.1355
ARG_OF_PERICENTER = 122.4911
MEAN_ANOMALY   = 237.6494

EPHEMERIS_TYPE = 0
CLASSIFICATION_TYPE = U
NORAD_CAT_ID   = 66765
ELEMENT_SET_NO = 999
REV_AT_EPOCH   = 314
BSTAR          = .38684E-3
MEAN_MOTION_DOT = .7949E-4
MEAN_MOTION_DDOT = 0

CCSDS_OMM_VERS = 2.0
CREATION_DATE  = 
ORIGINATOR     = 

OBJECT_NAME    = TRANSPORTER-15 DE
OBJECT_ID      = 2025-276DE
CENTER_NAME    = EARTH
REF_FRAME      = TEME
TIME_SYSTEM    = UTC
MEAN_ELEMENT_THEORY = SGP/SGP4

EPOCH          = 2025-12-19T15:35:30.972192
MEAN_MOTION    = 15.18366278
ECCENTRICITY   = .000201
INCLINATION    = 97.4374
RA_OF_ASC_NODE = 65.3120
ARG_OF_PERICENTER = 92.4206
MEAN_ANOMALY   = 267.7258

EPHEMERIS_TYPE = 0
CLASSIFICATION_TYPE = U
NORAD_CAT_ID   = 66766
ELEMENT_SET_NO = 999
REV_AT_EPOCH   = 317
BSTAR          = .20982E-3
MEAN_MOTION_DOT = .4244E-4
MEAN_MOTION_DDOT = 0

CCSDS_OMM_VERS = 2.0
CREATION_DATE  = 
ORIGINATOR     = 

OBJECT_NAME    = TRANSPORTER-15 DF
OBJECT_ID      = 2025-276DF
CENTER_NAME    = EARTH
REF_FRAME      = TEME
TIME_SYSTEM    = UTC
MEAN_ELEMENT_THEORY = SGP/SGP4

EPOCH          = 2025-12-19T15:36:24.283584
MEAN_MOTION    = 15.18267281
ECCENTRICITY   = .0002061
INCLINATION    = 97.4382
RA_OF_ASC_NODE = 65.3133
ARG_OF_PERICENTER = 92.7355
MEAN_ANOMALY   = 267.4115

EPHEMERIS_TYPE = 0
CLASSIFICATION_TYPE = U
NORAD_CAT_ID   = 66767
ELEMENT_SET_NO = 999
REV_AT_EPOCH   = 317
BSTAR          = .15018E-3
MEAN_MOTION_DOT = .3009E-4
MEAN_MOTION_DDOT = 0

CCSDS_OMM_VERS = 2.0
CREATION_DATE  = 
ORIGINATOR     = 

OBJECT_NAME    = TRANSPORTER-15 DG
OBJECT_ID      = 2025-276DG
CENTER_NAME    = EARTH
REF_FRAME      = TEME
TIME_SYSTEM    = UTC
MEAN_ELEMENT_THEORY = SGP/SGP4

EPOCH          = 2025-12-19T15:33:58.989024
MEAN_MOTION    = 15.18467388
ECCENTRICITY   = .0002273
INCLINATION    = 97.4368
RA_OF_ASC_NODE = 65.3125
ARG_OF_PERICENTER = 81.9212
MEAN_ANOMALY   = 278.2280

EPHEMERIS_TYPE = 0
CLASSIFICATION_TYPE = U
NORAD_CAT_ID   = 66768
ELEMENT_SET_NO = 999
REV_AT_EPOCH   = 317
BSTAR          = .25792E-3
MEAN_MOTION_DOT = .5248E-4
MEAN_MOTION_DDOT = 0

CCSDS_OMM_VERS = 2.0
CREATION_DATE  = 
ORIGINATOR     = 

OBJECT_NAME    = TRANSPORTER-15 DH
OBJECT_ID      = 2025-276DH
CENTER_NAME    = EARTH
REF_FRAME      = TEME
TIME_SYSTEM    = UTC
MEAN_ELEMENT_THEORY = SGP/SGP4

EPOCH          = 2025-12-19T15:34:56.375904
MEAN_MOTION    = 15.18367197
ECCENTRICITY   = .0002557
INCLINATION    = 97.4430
RA_OF_ASC_NODE = 65.3267
ARG_OF_PERICENTER = 111.6402
MEAN_ANOMALY   = 248.5104

EPHEMERIS_TYPE = 0
CLASSIFICATION_TYPE = U
NORAD_CAT_ID   = 66769
ELEMENT_SET_NO = 999
REV_AT_EPOCH   = 317
BSTAR          = .18671E-3
MEAN_MOTION_DOT = .3769E-4
MEAN_MOTION_DDOT = 0

