TRANSPORTER-15 CW       
1 66758U 25276CW  25353.65410001  .00003973  00000+0  19855-3 0  9991
2 66758  97.4405  65.3141 0001099 141.1431 218.9882 15.18031041  3170
TRANSPORTER-15 CX       
1 66759U 25276CX  25353.58683118  .00005044  00000+0  25020-3 0  9997
2 66759  97.4394  65.2472 0001493 144.8645 215.2688 15.18161392  3165
TRANSPORTER-15 CY       
1 66760U 25276CY  25353.58641694  .00003826  00000+0  19066-3 0  9991
2 66760  97.4410  65.2530 0001482 114.6882 245.4506 15.18148668  3162
TRANSPORTER-15 CZ       
1 66761U 25276CZ  25353.65037812  .00006602  00000+0  32412-3 0  9996
2 66761  97.4410  65.3201 0001457 126.8790 233.2578 15.18406785  3176
TRANSPORTER-15 DA       
1 66762U 25276DA  25353.66372477  .00002680  00000+0  13794-3 0  9991
2 66762  97.4418  65.3051 0001021 289.3791  70.7333 15.17272441  3173
TRANSPORTER-15 DB       
1 66763U 25276DB  25353.66197351  .00002608  00000+0  13384-3 0  9993
2 66763  97.4424  65.3111 0001394 262.5226  97.5849 15.17399525  3179
TRANSPORTER-15 DC       
1 66764U 25276DC  25353.65814823  .00002240  00000+0  11455-3 0  9992
2 66764  97.4416  65.3107 0001782 211.1809 148.9319 15.17665105  3177
TRANSPORTER-15 DD       
1 66765U 25276DD  25353.44989041  .00007949  00000+0  38684-3 0  9999
2 66765  97.4434  65.1355 0001765 122.4911 237.6494 15.18650413  3144
TRANSPORTER-15 DE       
1 66766U 25276DE  25353.64966403  .00004244  00000+0  20982-3 0  9996
2 66766  97.4374  65.3120 0002010  92.4206 267.7258 15.18366278  3175
TRANSPORTER-15 DF       
1 66767U 25276DF  25353.65028106  .00003009  00000+0  15018-3 0  9999
2 66767  97.4382  65.3133 0002061  92.7355 267.4115 15.18267281  3176
TRANSPORTER-15 DG       
1 66768U 25276DG  25353.64859941  .00005248  00000+0  25792-3 0  9995
2 66768  97.4368  65.3125 0002273  81.9212 278.2280 15.18467388  3172
TRANSPORTER-15 DH       
1 66769U 25276DH  25353.64926361  .00003769  00000+0  18671-3 0  9991
2 66769  97.4430  65.3267 0002557 111.6402 248.5104 15.18367197  3179
